ONEWEB-0560             
1 55145U 23004F   24291.00145463 -.00001376  00000+0 -35223-2 0  9995
2 55145  87.9058  96.5269 0001694  88.0219 272.1107 13.18690820 89559
ONEWEB-0565             
1 55146U 23004G   24290.91925192  .00000084  00000+0  18073-3 0  9998
2 55146  87.9053  96.6158 0001801  69.9468 290.1858 13.18688351 89534
ONEWEB-0567             
1 55147U 23004H   24291.21644422  .00000062  00000+0  12425-3 0  9998
2 55147  87.9056  96.5109 0001964  76.9067 283.2284 13.18683851 89576
ONEWEB-0569             
1 55148U 23004J   24290.50054911  .00000306  00000+0  80349-3 0  9999
2 55148  87.8877  81.2902 0002545  77.4585 282.6828 13.13472418 90272
ONEWEB-0570             
1 55149U 23004K   24291.20378495  .00000109  00000+0  24332-3 0  9995
2 55149  87.9059  96.5128 0001120  64.0406 296.0841 13.18688883 89561
ONEWEB-0571             
1 55150U 23004L   24290.89395969  .00000079  00000+0  16742-3 0  9998
2 55150  87.9055  96.5815 0002105  60.8350 299.2993 13.18688430 89536
ONEWEB-0572             
1 55151U 23004M   24291.11874792  .00000186  00000+0  44672-3 0  9993
2 55151  87.9083 127.0009 0001539  74.9493 285.1808 13.17649663 87404
ONEWEB-0573             
1 55152U 23004N   24291.19114308  .00000018  00000+0  13035-4 0  9996
2 55152  87.9053  96.5375 0001801  57.7790 302.3516 13.18688303 89561
